[{"OBJECT_NAME":"STARLINK-34613","OBJECT_ID":"2025-184X","EPOCH":"2026-03-09T17:24:54.089856","MEAN_MOTION":15.05686471,"ECCENTRICITY":0.00016923,"INCLINATION":97.6018,"RA_OF_ASC_NODE":122.6564,"ARG_OF_PERICENTER":64.4167,"MEAN_ANOMALY":295.7235,"EPHEMERIS_TYPE":0,"CLASSIFICATION_TYPE":"U","NORAD_CAT_ID":65294,"ELEMENT_SET_NO":999,"REV_AT_EPOCH":3130,"BSTAR":0.00072224796,"MEAN_MOTION_DOT":0.00010386,"MEAN_MOTION_DDOT":0},{"OBJECT_NAME":"CZ-2C DEB","OBJECT_ID":"2014-059D","EPOCH":"2026-03-09T22:58:58.836288","MEAN_MOTION":14.93158478,"ECCENTRICITY":0.00543695,"INCLINATION":97.8294,"RA_OF_ASC_NODE":330.422,"ARG_OF_PERICENTER":95.2459,"MEAN_ANOMALY":265.4968,"EPHEMERIS_TYPE":0,"CLASSIFICATION_TYPE":"U","NORAD_CAT_ID":40264,"ELEMENT_SET_NO":999,"REV_AT_EPOCH":60833,"BSTAR":0.0017870547,"MEAN_MOTION_DOT":0.00019177,"MEAN_MOTION_DDOT":0}]
